{"type": "FeatureCollection", "features": [{"type": "Feature", "properties": {"name": "Farra di Soligo", "osm_id": 46410}, "geometry": {"type": "Polygon", "coordinates": [[[12.0546157, 45.8937964], [12.0547339, 45.8937166], [12.0549861, 45.8936448], [12.0551885, 45.8935147], [12.0556417, 45.8932858], [12.0558294, 45.8931698], [12.0560234, 45.8930291], [12.0562214, 45.8928178], [12.0564316, 45.8926875], [12.0567357, 45.892571], [12.0570186, 45.892493], [12.0573896, 45.8924668], [12.0576788, 45.8925024], [12.0579977, 45.8925155], [12.0582621, 45.8925247], [12.0585316, 45.892485], [12.0588255, 45.8923254], [12.0591123, 45.8921768], [12.0593258, 45.892106], [12.0596101, 45.892055], [12.0599854, 45.8921046], [12.0602671, 45.8921473], [12.0605154, 45.8921461], [12.0608016, 45.8921276], [12.0609867, 45.8921064], [12.0611617, 45.8920421], [12.0612871, 45.8919249], [12.0614711, 45.891882], [12.0616994, 45.8919409], [12.0618744, 45.8920175], [12.0620607, 45.892018], [12.0622833, 45.891974], [12.0624681, 45.8919474], [12.0627149, 45.8919191], [12.0628636, 45.8919422], [12.0630932, 45.8920228], [12.0632946, 45.8920174], [12.0635093, 45.8919682], [12.063723, 45.8919042], [12.0640172, 45.8918909], [12.0642873, 45.891862], [12.0645335, 45.8918228], [12.0646957, 45.8916667], [12.0648548, 45.8914565], [12.0650394, 45.8912835], [12.065152, 45.8912155], [12.065414, 45.8911814], [12.0656267, 45.8910944], [12.0657694, 45.8910092], [12.0659169, 45.8908698], [12.0661554, 45.8906899], [12.0664125, 45.8904283], [12.0666007, 45.8901794], [12.0667551, 45.8900235], [12.0669518, 45.8899315], [12.0672444, 45.8898911], [12.0674847, 45.8898846], [12.0676223, 45.8898466], [12.0677851, 45.8897014], [12.0679112, 45.889595], [12.0681088, 45.8892375], [12.0683073, 45.889037], [12.0685866, 45.8887531], [12.0687761, 45.8885312], [12.0688557, 45.8882852], [12.0691175, 45.8878254], [12.0695279, 45.8873863], [12.0701262, 45.8866982], [12.0705107, 45.8862109], [12.0705775, 45.886155], [12.0707232, 45.8859806], [12.0715033, 45.8849298], [12.0722344, 45.8835137], [12.0723018, 45.8835141], [12.0725569, 45.8834452], [12.0730596, 45.8830338], [12.0733846, 45.8827564], [12.0735608, 45.8828653], [12.0737143, 45.8826958], [12.0737162, 45.8825976], [12.0738111, 45.88244], [12.0737486, 45.8819766], [12.0737766, 45.88195], [12.0738867, 45.8819316], [12.0742435, 45.8819633], [12.074767, 45.8820628], [12.0751773, 45.8821242], [12.075364, 45.8818866], [12.0757895, 45.8815547], [12.0762008, 45.8812154], [12.0763079, 45.881011], [12.076658, 45.8809189], [12.0769533, 45.8809057], [12.0773937, 45.8811109], [12.0779548, 45.8814886], [12.0780578, 45.8813412], [12.0780975, 45.881123], [12.0785448, 45.8811833], [12.079103, 45.8812406], [12.0790447, 45.8808545], [12.0790116, 45.8805247], [12.0794936, 45.8804082], [12.0796538, 45.8803626], [12.0799246, 45.8804432], [12.0799288, 45.8805161], [12.0807011, 45.8808313], [12.0809339, 45.8808922], [12.0807571, 45.8804606], [12.0806429, 45.8801816], [12.0814675, 45.8802368], [12.0817204, 45.8809278], [12.0818446, 45.8811674], [12.0819797, 45.8812], [12.082138, 45.8808494], [12.0821464, 45.880601], [12.0822956, 45.8804884], [12.0823687, 45.8804425], [12.0825995, 45.8803128], [12.082953, 45.8800949], [12.0831027, 45.880017], [12.083335, 45.8796949], [12.0835064, 45.8794886], [12.0837136, 45.8794091], [12.0838678, 45.8794116], [12.0841759, 45.8795915], [12.0844066, 45.87976], [12.084605, 45.8798688], [12.0846895, 45.8798729], [12.0848751, 45.8798817], [12.0853165, 45.8793389], [12.0863884, 45.8794107], [12.0865371, 45.8787952], [12.0875037, 45.8788766], [12.0875641, 45.8786398], [12.0876538, 45.8782879], [12.0874948, 45.8778487], [12.0878876, 45.8776465], [12.0881343, 45.8772366], [12.0886547, 45.8774242], [12.0891257, 45.8775862], [12.0894391, 45.8776853], [12.0896043, 45.8777144], [12.089853, 45.8776875], [12.090159, 45.8776523], [12.0905367, 45.8775211], [12.0910011, 45.8773942], [12.0914997, 45.8773606], [12.0919794, 45.8773342], [12.0927691, 45.8773463], [12.0935196, 45.8773495], [12.0943626, 45.8772797], [12.0950803, 45.8772064], [12.0952902, 45.8771739], [12.0955508, 45.877187], [12.0958273, 45.8773139], [12.0964558, 45.8777135], [12.0966524, 45.8777889], [12.0968192, 45.8778449], [12.0970391, 45.8778188], [12.0972806, 45.8776643], [12.0974561, 45.8775319], [12.0975334, 45.8775364], [12.0977334, 45.8776722], [12.0979039, 45.8777953], [12.0981382, 45.8778562], [12.0981426, 45.8781148], [12.0981942, 45.8783487], [12.0980745, 45.8786208], [12.0982409, 45.87867], [12.0979135, 45.8795326], [12.0977749, 45.87998], [12.0976757, 45.8804464], [12.0974458, 45.8811584], [12.0974288, 45.8811993], [12.0975753, 45.8812356], [12.0977283, 45.881218], [12.0979397, 45.8812122], [12.0981861, 45.8811451], [12.0986211, 45.8810055], [12.0991033, 45.8808513], [12.0995545, 45.8806575], [12.0999765, 45.8804579], [12.1004844, 45.8802492], [12.1009176, 45.8800761], [12.1011182, 45.8800505], [12.1010942, 45.8800446], [12.1013269, 45.8800489], [12.1015992, 45.8801262], [12.1018499, 45.8801795], [12.1020329, 45.8801992], [12.1022724, 45.8801397], [12.1025736, 45.8800115], [12.1029317, 45.8798146], [12.1031229, 45.879707], [12.1033134, 45.8796771], [12.1035939, 45.879631], [12.1038568, 45.8795391], [12.1042224, 45.8793843], [12.1045397, 45.8792697], [12.1047346, 45.8792292], [12.1049864, 45.8792082], [12.1053546, 45.8790993], [12.1057774, 45.8789747], [12.1060475, 45.8789215], [12.1063472, 45.8788659], [12.1065558, 45.878793], [12.1067574, 45.8786886], [12.1069032, 45.8785786], [12.1070806, 45.8784924], [12.1070842, 45.8784908], [12.1067029, 45.8802714], [12.107272, 45.8802302], [12.1074345, 45.8801678], [12.1079505, 45.8801666], [12.1074838, 45.8813806], [12.1078841, 45.8814533], [12.1077407, 45.881689], [12.1072499, 45.8819791], [12.1072847, 45.8821069], [12.1073998, 45.8821874], [12.1082748, 45.8823438], [12.1094395, 45.8825696], [12.1097685, 45.8826852], [12.1098714, 45.8827146], [12.1101722, 45.8826549], [12.1103382, 45.8826568], [12.1103716, 45.8827589], [12.1102752, 45.8830125], [12.1102414, 45.8832323], [12.1102843, 45.8833406], [12.1109387, 45.8836703], [12.1113755, 45.883903], [12.1112675, 45.8841119], [12.111068, 45.8843362], [12.1113104, 45.8845529], [12.1117539, 45.8849013], [12.1116888, 45.8853857], [12.1115054, 45.8862275], [12.111805, 45.8862367], [12.1120594, 45.8862446], [12.1130893, 45.8862037], [12.1137884, 45.8861781], [12.1141494, 45.8856622], [12.1143462, 45.8853837], [12.1148408, 45.8853052], [12.1154673, 45.8851866], [12.1158795, 45.8853627], [12.1162444, 45.8854868], [12.1165198, 45.8854818], [12.1170804, 45.8854483], [12.1179132, 45.8853476], [12.1186573, 45.8855254], [12.1196158, 45.885671], [12.1201158, 45.8857484], [12.1215098, 45.8859701], [12.1226537, 45.8861434], [12.1229464, 45.8861718], [12.1233269, 45.8861693], [12.1233628, 45.8864107], [12.1238767, 45.8864736], [12.1240276, 45.8865118], [12.1240622, 45.8865206], [12.1251363, 45.8865745], [12.1252267, 45.8865903], [12.1253287, 45.8867439], [12.1254617, 45.8868549], [12.1255724, 45.8869079], [12.1259716, 45.8869699], [12.1261816, 45.8869225], [12.1265633, 45.8869434], [12.1270369, 45.8869355], [12.1271934, 45.8869274], [12.1274538, 45.8867795], [12.1277427, 45.8865422], [12.1278025, 45.8864077], [12.1283315, 45.88699], [12.1286591, 45.8869758], [12.1285745, 45.8862015], [12.129219, 45.8861839], [12.1293022, 45.8867992], [12.1293735, 45.8874722], [12.1293945, 45.8876371], [12.1298861, 45.8876184], [12.1298709, 45.8872149], [12.1308401, 45.8872639], [12.1326712, 45.8873687], [12.1333206, 45.88742], [12.1334852, 45.8873607], [12.1336451, 45.8873511], [12.1338003, 45.8873235], [12.1342852, 45.8871877], [12.1347421, 45.8870187], [12.1353237, 45.8868164], [12.135755, 45.8867212], [12.1360209, 45.8866722], [12.1365646, 45.8865191], [12.136847, 45.8864332], [12.1377771, 45.8861326], [12.1383443, 45.8859347], [12.1386581, 45.8858088], [12.1388398, 45.88567], [12.1388761, 45.8856399], [12.1395229, 45.885398], [12.1402089, 45.8851889], [12.1408218, 45.8850052], [12.1419536, 45.8846418], [12.1423367, 45.8844879], [12.1427104, 45.8843004], [12.142914, 45.8841528], [12.1431965, 45.8840668], [12.1435628, 45.8839447], [12.1438162, 45.8838725], [12.1444262, 45.8837724], [12.1448598, 45.8837122], [12.1452143, 45.8836451], [12.1456198, 45.8835583], [12.1457565, 45.8837969], [12.1460091, 45.884173], [12.1461816, 45.8843873], [12.146289, 45.8845041], [12.1465227, 45.8846215], [12.1468787, 45.8847785], [12.1472067, 45.88497], [12.1474382, 45.8851696], [12.1475578, 45.885307], [12.1476541, 45.8853708], [12.1479283, 45.8854675], [12.148188, 45.8855724], [12.1483449, 45.8857739], [12.1483517, 45.8857851], [12.1485585, 45.8861265], [12.148567, 45.8861405], [12.1490185, 45.8869241], [12.1493097, 45.8874646], [12.1494578, 45.8876673], [12.1495038, 45.8877303], [12.1496567, 45.8878655], [12.1497606, 45.8879546], [12.1498333, 45.888017], [12.1498398, 45.8880297], [12.1498653, 45.8880802], [12.149888, 45.888125], [12.1498726, 45.8881706], [12.1498464, 45.8882486], [12.1497108, 45.8883592], [12.1493074, 45.8886244], [12.1489362, 45.888791], [12.1485277, 45.8889586], [12.1484287, 45.8890132], [12.1480897, 45.8892], [12.1475085, 45.8895546], [12.1472286, 45.8897254], [12.1470344, 45.8898493], [12.1468827, 45.8899461], [12.147425, 45.8904771], [12.147749, 45.8907965], [12.1486241, 45.8916728], [12.1491635, 45.8922403], [12.1491311, 45.8922701], [12.1489893, 45.8924005], [12.1489692, 45.892419], [12.1488375, 45.8925626], [12.1488215, 45.8925888], [12.1489047, 45.8927363], [12.1491232, 45.8929773], [12.1494833, 45.8933247], [12.1498809, 45.8936794], [12.1499827, 45.8937309], [12.1501124, 45.893762], [12.1503073, 45.8937775], [12.1507288, 45.8937737], [12.1510251, 45.8937994], [12.1512728, 45.8939349], [12.1522364, 45.8947228], [12.1523203, 45.8947904], [12.1525145, 45.8949222], [12.1528136, 45.8950942], [12.1531747, 45.8952541], [12.1536613, 45.8955023], [12.1542607, 45.895749], [12.154751, 45.8959996], [12.1547508, 45.8960361], [12.1547503, 45.8961239], [12.154809, 45.8962396], [12.1551087, 45.8963225], [12.1552875, 45.8963827], [12.1555077, 45.8965799], [12.155686, 45.8968316], [12.1560588, 45.8970194], [12.1568252, 45.8973708], [12.1571898, 45.8974872], [12.1575604, 45.897585], [12.1578874, 45.8976138], [12.1581879, 45.8976472], [12.1584813, 45.8977538], [12.1589692, 45.8979982], [12.1590139, 45.8980238], [12.1590167, 45.898033], [12.1590988, 45.8983869], [12.1590938, 45.8986294], [12.1590664, 45.8988022], [12.1589891, 45.8990669], [12.1589721, 45.8991048], [12.1588882, 45.899397], [12.1588786, 45.8994626], [12.1588768, 45.8994746], [12.1588746, 45.8994899], [12.1588689, 45.8995285], [12.1588113, 45.8998106], [12.1587286, 45.9000975], [12.1587111, 45.9001421], [12.1586764, 45.9002307], [12.1586131, 45.9003673], [12.1585695, 45.9005008], [12.1587284, 45.900537], [12.1590928, 45.9006342], [12.1591258, 45.900642], [12.1596614, 45.9007678], [12.1594743, 45.9010645], [12.1594748, 45.9010749], [12.1592369, 45.9015043], [12.1590166, 45.9019529], [12.1597262, 45.9020927], [12.1607018, 45.9023138], [12.161581, 45.9025402], [12.1619935, 45.9026554], [12.162119, 45.9026905], [12.161969, 45.9030604], [12.161769, 45.9035476], [12.1615846, 45.9039842], [12.161353, 45.9043595], [12.1610188, 45.9047241], [12.1606565, 45.9050661], [12.1602081, 45.9054245], [12.1600305, 45.9055977], [12.1600464, 45.9056068], [12.1608333, 45.9060549], [12.161405, 45.9063336], [12.1622628, 45.9066979], [12.1629402, 45.9069503], [12.1631705, 45.9070251], [12.163643, 45.9071786], [12.164074, 45.9073384], [12.1650039, 45.9076726], [12.1652906, 45.9075338], [12.1655625, 45.9073673], [12.1656149, 45.9073742], [12.1657001, 45.9073855], [12.165738, 45.9073905], [12.1659375, 45.9073382], [12.166089, 45.9073057], [12.166309, 45.9072859], [12.1666697, 45.907285], [12.1669388, 45.9072964], [12.1671882, 45.9073362], [12.16752, 45.9073972], [12.1676956, 45.9074264], [12.1673592, 45.9077584], [12.1672035, 45.9079589], [12.1668838, 45.9083418], [12.1666314, 45.9086154], [12.1672157, 45.9088797], [12.1677913, 45.9091067], [12.1677425, 45.9093061], [12.168491, 45.9094679], [12.1692896, 45.909647], [12.1698916, 45.9097656], [12.1698974, 45.9099854], [12.1699173, 45.9104489], [12.1699828, 45.911013], [12.1699461, 45.9113327], [12.1698456, 45.911531], [12.1694836, 45.9117732], [12.1691131, 45.9119705], [12.1686968, 45.9121876], [12.1682849, 45.9123675], [12.1680668, 45.9124157], [12.1678147, 45.91246], [12.1675609, 45.9125934], [12.1673316, 45.912796], [12.1672284, 45.9129863], [12.1671188, 45.913529], [12.1670494, 45.9139611], [12.1669896, 45.9142013], [12.1669799, 45.9145054], [12.1668805, 45.9146389], [12.1666895, 45.9146956], [12.1662585, 45.9147682], [12.1658006, 45.9148512], [12.1656976, 45.9148576], [12.1656976, 45.914846], [12.1656032, 45.9148729], [12.1654485, 45.9149192], [12.1652882, 45.9149236], [12.1650946, 45.9149224], [12.1650358, 45.9149224], [12.1649791, 45.9149224], [12.1648618, 45.9148904], [12.1647635, 45.9148605], [12.1646507, 45.9148127], [12.1645231, 45.9147614], [12.1644001, 45.9147067], [12.1642539, 45.9146435], [12.1641255, 45.914573], [12.1639872, 45.9144963], [12.1638221, 45.9144269], [12.1634652, 45.9142306], [12.1631755, 45.9140846], [12.1629091, 45.914035], [12.1627188, 45.9139913], [12.1625072, 45.9139876], [12.1622193, 45.9140278], [12.1620956, 45.9140408], [12.1620132, 45.9140527], [12.1618914, 45.9140979], [12.1617968, 45.9141423], [12.1616845, 45.9141937], [12.161536, 45.9142525], [12.1613918, 45.9143044], [12.1612872, 45.9143333], [12.1612145, 45.9143448], [12.1611142, 45.9143639], [12.160983, 45.9144092], [12.1608572, 45.9144641], [12.1607183, 45.9145357], [12.1606334, 45.9145797], [12.160558, 45.9146232], [12.1604961, 45.9146635], [12.1604329, 45.9147043], [12.1603354, 45.9147614], [12.1602368, 45.9148225], [12.160149, 45.9148924], [12.1600378, 45.9150043], [12.1599185, 45.9151433], [12.1598478, 45.9151901], [12.1597724, 45.915254], [12.159735, 45.9153124], [12.1597057, 45.9153682], [12.159672, 45.9154202], [12.1596477, 45.915479], [12.159635, 45.9155793], [12.1596355, 45.9156626], [12.1596501, 45.9157561], [12.159669, 45.9158512], [12.1597014, 45.9159278], [12.159728, 45.915995], [12.159746, 45.9160717], [12.1597543, 45.9161419], [12.1597543, 45.9162187], [12.1597257, 45.9162834], [12.15961, 45.9163609], [12.1595109, 45.9164088], [12.1594174, 45.9164429], [12.1593181, 45.9164779], [12.1592273, 45.9165096], [12.159128, 45.9165411], [12.1589825, 45.9165873], [12.1588603, 45.9166196], [12.1587108, 45.9166622], [12.1585433, 45.9167118], [12.1583856, 45.9167675], [12.1581645, 45.9168519], [12.1581132, 45.9168588], [12.1579517, 45.916924], [12.1578335, 45.9169631], [12.1576923, 45.9169926], [12.1575104, 45.9170331], [12.157369, 45.9170661], [12.1572235, 45.9170923], [12.1570824, 45.917122], [12.1569052, 45.9171623], [12.1566914, 45.9172197], [12.1565813, 45.9172356], [12.1564529, 45.9172455], [12.1560551, 45.9173113], [12.1559277, 45.9173247], [12.1558142, 45.9173533], [12.1557565, 45.9173904], [12.1556906, 45.91745], [12.1556125, 45.9175361], [12.155552, 45.9176095], [12.1556648, 45.9176406], [12.1557578, 45.9176574], [12.1559077, 45.9176855], [12.1559998, 45.9176958], [12.156238, 45.9177534], [12.1563167, 45.9177609], [12.156644, 45.9178387], [12.1567735, 45.9178449], [12.1568816, 45.9178869], [12.1569538, 45.9179272], [12.1570202, 45.9179669], [12.1570822, 45.9180006], [12.1571534, 45.9180373], [12.1572108, 45.9180743], [12.157274, 45.9181214], [12.157336, 45.9181645], [12.1574178, 45.9182265], [12.1574846, 45.9182788], [12.1575527, 45.9183383], [12.1576159, 45.9183975], [12.1576692, 45.9184473], [12.1577323, 45.9185066], [12.1578, 45.9185625], [12.1578639, 45.9186348], [12.1579053, 45.9187141], [12.1579334, 45.9188003], [12.157954, 45.9188384], [12.1579754, 45.9188924], [12.1579796, 45.9189632], [12.1579786, 45.9190306], [12.1579579, 45.9192054], [12.157751, 45.9193611], [12.15756, 45.919455], [12.1573323, 45.9195096], [12.1571035, 45.9195482], [12.1568514, 45.9195793], [12.1566319, 45.9195773], [12.1563894, 45.9195759], [12.1561934, 45.9195814], [12.1559633, 45.9195958], [12.1557107, 45.9196189], [12.155457, 45.9196259], [12.155262, 45.9196474], [12.1550799, 45.9196928], [12.1549336, 45.9197613], [12.1548109, 45.9198372], [12.1546882, 45.919913], [12.1545559, 45.9200215], [12.1543145, 45.9202457], [12.1541162, 45.9204124], [12.1539838, 45.9205208], [12.1538772, 45.9206768], [12.1537834, 45.9208566], [12.1537779, 45.9209615], [12.1538184, 45.9210652], [12.1538783, 45.9211039], [12.1540328, 45.9211801], [12.1542568, 45.9212626], [12.154555, 45.9214316], [12.1547542, 45.9214825], [12.1550815, 45.921554], [12.1552719, 45.9216535], [12.1555324, 45.9217672], [12.1557213, 45.9218425], [12.1557991, 45.9219935], [12.1558415, 45.9221293], [12.1558507, 45.9222902], [12.1558146, 45.9224684], [12.1557877, 45.9226062], [12.1557587, 45.9227037], [12.1557416, 45.922809], [12.1556691, 45.922956], [12.1556182, 45.9230782], [12.1555781, 45.9231841], [12.1555153, 45.9232986], [12.1554007, 45.9234688], [12.1552237, 45.9236532], [12.1551596, 45.9237436], [12.1550969, 45.9238581], [12.1548969, 45.924071], [12.1544605, 45.924573], [12.1543503, 45.9247294], [12.1541732, 45.9249962], [12.1541475, 45.9250289], [12.1540531, 45.9251401], [12.153908, 45.9253229], [12.1537217, 45.9255901], [12.1535625, 45.9256903], [12.1534206, 45.9257709], [12.1532711, 45.9258772], [12.1531474, 45.9259573], [12.1529704, 45.9260645], [12.1528573, 45.9261698], [12.1526789, 45.9262514], [12.1525074, 45.9262944], [12.152364, 45.9263495], [12.1521939, 45.9264181], [12.1520513, 45.926486], [12.1519529, 45.926527], [12.1517927, 45.9266081], [12.1516771, 45.9266688], [12.1516249, 45.9267605], [12.1514576, 45.9268346], [12.1512269, 45.9269623], [12.1510765, 45.927056], [12.1508263, 45.927165], [12.1506475, 45.9272402], [12.1502883, 45.9273654], [12.15008, 45.9274031], [12.1498276, 45.9274739], [12.1496723, 45.9274782], [12.1494799, 45.9274771], [12.1493252, 45.9274942], [12.149225, 45.9275033], [12.1488784, 45.9275257], [12.1486264, 45.9276029], [12.1485376, 45.92765], [12.1483489, 45.9277127], [12.1481872, 45.9277683], [12.1479631, 45.9278512], [12.1477286, 45.9279151], [12.1475303, 45.9279717], [12.1473867, 45.9280204], [12.1472159, 45.9280762], [12.1470623, 45.9281124], [12.1469167, 45.9281291], [12.1468071, 45.9281322], [12.146778, 45.9281263], [12.1466404, 45.9280984], [12.1465383, 45.9280757], [12.1462035, 45.9279827], [12.1461184, 45.927934], [12.1459966, 45.9278862], [12.1457926, 45.9278407], [12.145562, 45.9278087], [12.145423, 45.9277806], [12.145321, 45.9277578], [12.1451361, 45.9277246], [12.145026, 45.9277212], [12.1448702, 45.9277192], [12.1447693, 45.9277156], [12.1446607, 45.9277377], [12.1444977, 45.9277677], [12.1444439, 45.9277884], [12.1442716, 45.9278187], [12.1441454, 45.9278541], [12.1440109, 45.9279026], [12.1438214, 45.9279525], [12.143677, 45.9279884], [12.1435321, 45.928018], [12.1433248, 45.9280748], [12.1430717, 45.9281329], [12.1429086, 45.9281629], [12.1427642, 45.9281988], [12.1425853, 45.928274], [12.1424159, 45.9283554], [12.1422818, 45.9284102], [12.142157, 45.9284711], [12.1420059, 45.928552], [12.1419262, 45.9285988], [12.1417452, 45.9286838], [12.1414762, 45.9287228], [12.1413086, 45.9287499], [12.1411414, 45.9287826], [12.1409982, 45.9288146], [12.1408227, 45.9288419], [12.1405994, 45.9288818], [12.1404573, 45.9289307], [12.1403543, 45.9289616], [12.1402192, 45.9289934], [12.1400136, 45.9290609], [12.1399184, 45.929086], [12.1397583, 45.929101], [12.1396803, 45.9291482], [12.1395867, 45.9292013], [12.1394622, 45.9292777], [12.1393863, 45.9293585], [12.1393483, 45.9293989], [12.1392807, 45.929485], [12.1391967, 45.929566], [12.1391185, 45.9296075], [12.1390249, 45.9296607], [12.1388586, 45.9297101], [12.1387395, 45.9297415], [12.1386598, 45.9297549], [12.1385318, 45.9297697], [12.1384118, 45.9297843], [12.1382526, 45.9298167], [12.1381171, 45.9298429], [12.1379331, 45.9298648], [12.1378046, 45.9298684], [12.1376438, 45.9298728], [12.1375071, 45.9298765], [12.137354, 45.9298752], [12.1372575, 45.9298778], [12.137089, 45.929888], [12.1369041, 45.9298931], [12.1368368, 45.929895], [12.1367593, 45.9298971], [12.1366224, 45.9298953], [12.1365092, 45.9298871], [12.1363644, 45.9298911], [12.1362515, 45.9298885], [12.1361216, 45.9298697], [12.1359995, 45.9298449], [12.1358371, 45.9298213], [12.135739, 45.9297959], [12.1355769, 45.9297778], [12.1354476, 45.9297701], [12.1353027, 45.9297685], [12.1351254, 45.9297678], [12.1349891, 45.9297771], [12.1348447, 45.9297867], [12.1347414, 45.929812], [12.1346629, 45.9298479], [12.1346001, 45.9298777], [12.1345291, 45.9299022], [12.1344732, 45.9299093], [12.134392, 45.9299003], [12.1342943, 45.9298805], [12.1342043, 45.9298549], [12.1340973, 45.9298129], [12.1340069, 45.9297816], [12.1338992, 45.9297284], [12.1337363, 45.9296935], [12.1336304, 45.9296739], [12.1335738, 45.9296699], [12.1334288, 45.9296682], [12.1332757, 45.9296669], [12.1331793, 45.9296695], [12.1330288, 45.9296659], [12.1329615, 45.9296642], [12.1328572, 45.9296728], [12.1327206, 45.9296765], [12.1325357, 45.9296816], [12.1324309, 45.9296788], [12.132254, 45.9296836], [12.1320855, 45.9296939], [12.1319654, 45.9297084], [12.1317081, 45.9297132], [12.1315961, 45.9297275], [12.1314838, 45.9297363], [12.1313552, 45.9297398], [12.1312257, 45.9297264], [12.1310899, 45.9297471], [12.1309473, 45.9297903], [12.1308046, 45.9298279], [12.1306862, 45.9298705], [12.1305922, 45.9299181], [12.1304889, 45.9299433], [12.1303937, 45.9299684], [12.1303137, 45.9299763], [12.1302097, 45.9299903], [12.1301133, 45.9299929], [12.1300159, 45.9299788], [12.1298936, 45.929954], [12.1298043, 45.9299397], [12.1297065, 45.9299198], [12.1295673, 45.9298787], [12.1295018, 45.929858], [12.1294117, 45.9298324], [12.1293053, 45.9298016], [12.1291667, 45.9297716], [12.1290359, 45.9297359], [12.1288806, 45.9296952], [12.1287337, 45.9296599], [12.1285864, 45.9296191], [12.1284874, 45.9295768], [12.1283559, 45.9295298], [12.1282244, 45.9294828], [12.12811, 45.9294523], [12.1279955, 45.9294217], [12.1278647, 45.9293859], [12.1277663, 45.929355], [12.1276522, 45.9293299], [12.1275631, 45.9293211], [12.1274496, 45.9293074], [12.1273541, 45.9293268], [12.1272746, 45.9293459], [12.1271871, 45.9293652], [12.1271076, 45.9293842], [12.1270294, 45.9294256], [12.1269979, 45.9294377], [12.1268727, 45.929503], [12.1267945, 45.9295445], [12.1267547, 45.9295512], [12.1266421, 45.9295542], [12.1265453, 45.9295513], [12.126424, 45.9295434], [12.1263041, 45.9295579], [12.1261922, 45.9295722], [12.1260632, 45.9295701], [12.1259587, 45.929573], [12.1257815, 45.9295722], [12.1256448, 45.929576], [12.1255167, 45.9295907], [12.1253646, 45.9296061], [12.1252685, 45.9296144], [12.1251717, 45.9296114], [12.1250106, 45.9296102], [12.1248816, 45.9296081], [12.1247687, 45.9296055], [12.1246713, 45.9295914], [12.1245903, 45.9295823], [12.1245012, 45.9295735], [12.1243887, 45.9295766], [12.1242972, 45.9295762], [12.1242114, 45.9295759], [12.1241387, 45.9295723], [12.1240382, 45.929524], [12.1238678, 45.9294793], [12.123786, 45.929459], [12.1236716, 45.929427], [12.1236508, 45.9293433], [12.1236705, 45.9292641], [12.123734, 45.9291051], [12.1237902, 45.9289575], [12.1237852, 45.9288677], [12.1237476, 45.9287731], [12.1236854, 45.9286681], [12.1234878, 45.9284488], [12.1233757, 45.9283169], [12.1232376, 45.9281522], [12.1231436, 45.9280536], [12.122972, 45.9278672], [12.1228888, 45.9278189], [12.1227554, 45.9277383], [12.1225311, 45.9276152], [12.1221762, 45.9274619], [12.1220522, 45.9274036], [12.1219043, 45.9273514], [12.1217576, 45.9273217], [12.121675, 45.9273107], [12.1215805, 45.926939], [12.1217369, 45.9267159], [12.1217993, 45.9266806], [12.1218643, 45.9265497], [12.1219613, 45.926415], [12.1220191, 45.9263012], [12.1221296, 45.9261186], [12.122282, 45.9259686], [12.1222944, 45.9257606], [12.1223886, 45.9257187], [12.1222628, 45.9256268], [12.1221141, 45.9255579], [12.1218627, 45.9255199], [12.1216545, 45.9253909], [12.1215238, 45.9253551], [12.1213555, 45.9253654], [12.1212505, 45.925357], [12.120987, 45.9252464], [12.1208508, 45.9252557], [12.1206269, 45.9252787], [12.1205541, 45.9252758], [12.1204577, 45.9252721], [12.120359, 45.9252355], [12.1202664, 45.9251595], [12.1202273, 45.9250371], [12.1201034, 45.9249805], [12.1193866, 45.9248149], [12.1185393, 45.9246192], [12.1179268, 45.9244508], [12.117581, 45.9243087], [12.1170799, 45.9241204], [12.1169884, 45.9240738], [12.1168813, 45.9240192], [12.1166666, 45.9239184], [12.1165369, 45.923902], [12.116275, 45.9238194], [12.1159507, 45.9237721], [12.1155381, 45.9237273], [12.1153351, 45.9236935], [12.1151708, 45.9236307], [12.1149109, 45.9234414], [12.1143573, 45.9231759], [12.1136626, 45.9229759], [12.1131373, 45.9229286], [12.113149, 45.9228497], [12.112494, 45.9226408], [12.1116423, 45.9223666], [12.1108681, 45.9221801], [12.1103013, 45.9219655], [12.1096544, 45.9217586], [12.1089073, 45.9214837], [12.1084753, 45.9213777], [12.1081021, 45.9213205], [12.1080317, 45.9212102], [12.1079396, 45.9211454], [12.1078207, 45.9210307], [12.1072528, 45.9206534], [12.1068333, 45.9204853], [12.1068386, 45.9205805], [12.1067736, 45.9207114], [12.1064054, 45.9205979], [12.106166, 45.9204866], [12.1059896, 45.9203511], [12.1057857, 45.9201568], [12.1055794, 45.9200615], [12.1053842, 45.9200219], [12.1049175, 45.9198718], [12.1042277, 45.9196155], [12.1035764, 45.9193246], [12.1030282, 45.919011], [12.1023922, 45.9187084], [12.1019375, 45.9184851], [12.1016595, 45.9184029], [12.1015527, 45.9183609], [12.1013374, 45.9182489], [12.1011972, 45.9181854], [12.1014417, 45.917814], [12.1017482, 45.9173959], [12.1018021, 45.9173533], [12.10184, 45.9171671], [12.1019807, 45.9170959], [12.1021903, 45.9169612], [12.1023534, 45.9167154], [12.1025781, 45.9164175], [12.1025971, 45.9163272], [12.1026489, 45.9162472], [12.1027483, 45.9161548], [12.102856, 45.9160676], [12.1026672, 45.9157117], [12.1024492, 45.9151173], [12.1022505, 45.9145839], [12.1020077, 45.9139788], [12.1019267, 45.9139665], [12.1015222, 45.9139215], [12.101427, 45.9139153], [12.1011829, 45.9138913], [12.1010037, 45.9138845], [12.100925, 45.9138815], [12.1005959, 45.9138905], [12.1005188, 45.9138857], [12.1003458, 45.9138748], [12.1000827, 45.9137697], [12.0998399, 45.9135968], [12.0998128, 45.9135634], [12.0996931, 45.9134155], [12.0995687, 45.9133459], [12.0995726, 45.9132729], [12.0995231, 45.9131059], [12.0993961, 45.9129915], [12.0992503, 45.9128271], [12.0992017, 45.9126769], [12.0992306, 45.9124741], [12.0991903, 45.9123293], [12.0991037, 45.9122168], [12.0989509, 45.9120694], [12.0988779, 45.9119143], [12.098644, 45.9117579], [12.0983444, 45.9115752], [12.0983231, 45.9114804], [12.098215, 45.911416], [12.0981424, 45.9114123], [12.0980686, 45.9113863], [12.0979197, 45.9113118], [12.0976644, 45.9112008], [12.0973501, 45.9111869], [12.0970835, 45.9111661], [12.0969693, 45.9111355], [12.0967312, 45.9110466], [12.0964586, 45.9110595], [12.0963357, 45.911018], [12.0960411, 45.9107791], [12.0959027, 45.9107492], [12.0957449, 45.9108024], [12.0954979, 45.9108429], [12.0951213, 45.9108642], [12.0948314, 45.9108553], [12.0946239, 45.9108834], [12.0943423, 45.9108798], [12.0940537, 45.9108932], [12.0939042, 45.9109534], [12.0937892, 45.9110519], [12.0937713, 45.9110571], [12.0935755, 45.9111138], [12.0933662, 45.9111083], [12.0931136, 45.9110477], [12.0926695, 45.9108689], [12.0921347, 45.9106478], [12.0920222, 45.9105049], [12.0917403, 45.9103498], [12.0914383, 45.9102682], [12.0912141, 45.9101395], [12.0909797, 45.909972], [12.0908075, 45.9097668], [12.090775, 45.9096162], [12.0906727, 45.9093664], [12.0905151, 45.9091349], [12.0900036, 45.9086101], [12.0896669, 45.9084825], [12.0890175, 45.9082251], [12.0887481, 45.9081483], [12.0884891, 45.9081159], [12.0880166, 45.9080052], [12.0877048, 45.9078903], [12.0873911, 45.9077416], [12.0873064, 45.9076653], [12.0871183, 45.9074628], [12.0867311, 45.9072937], [12.0865741, 45.9070735], [12.086418, 45.9070118], [12.0859107, 45.9068515], [12.0855974, 45.9067085], [12.0854507, 45.9066732], [12.0852404, 45.9066509], [12.0851503, 45.9066195], [12.085166, 45.9064676], [12.0850878, 45.9063631], [12.0849931, 45.9062478], [12.0849368, 45.9061035], [12.0846561, 45.9059707], [12.0841945, 45.9057643], [12.0838472, 45.9057345], [12.0834202, 45.9057179], [12.0829288, 45.9056975], [12.0828725, 45.905699], [12.0827859, 45.905716], [12.082626, 45.9057473], [12.0824355, 45.9057917], [12.0823648, 45.9058195], [12.0821443, 45.9059062], [12.0818042, 45.9060052], [12.0815636, 45.9060173], [12.0810933, 45.9059458], [12.0802127, 45.9057226], [12.0793409, 45.905516], [12.0784871, 45.9053425], [12.0780771, 45.9051964], [12.0781909, 45.9050755], [12.078546, 45.9048078], [12.078011, 45.9045707], [12.0779608, 45.9045485], [12.0776718, 45.9047022], [12.0774755, 45.904786], [12.07707, 45.9049454], [12.0763548, 45.904413], [12.0755487, 45.9038749], [12.0749385, 45.9034618], [12.0743755, 45.903145], [12.0734956, 45.9026609], [12.0723918, 45.9020473], [12.0717924, 45.9017021], [12.0711126, 45.9012957], [12.0702437, 45.9011357], [12.0697626, 45.9010363], [12.069286, 45.9010149], [12.0685697, 45.9007071], [12.06791, 45.9004098], [12.0669698, 45.9000981], [12.0666865, 45.9000326], [12.0665268, 45.9000514], [12.066479, 45.9000696], [12.0658761, 45.9002984], [12.0649683, 45.9007036], [12.0647812, 45.9008599], [12.0644747, 45.9011367], [12.0643193, 45.9011067], [12.0640934, 45.9014997], [12.0640496, 45.9015132], [12.0639034, 45.9015659], [12.0636426, 45.9016435], [12.0633117, 45.9017305], [12.0624263, 45.9017786], [12.0619437, 45.901777], [12.0618618, 45.9019403], [12.0617221, 45.901944], [12.0616406, 45.9019853], [12.0616649, 45.9020481], [12.0618445, 45.902136], [12.0616531, 45.9023413], [12.0612012, 45.9022607], [12.060177, 45.9019476], [12.0604115, 45.9017606], [12.0606589, 45.9015538], [12.0608438, 45.9013584], [12.0609483, 45.9012239], [12.0609878, 45.9010519], [12.0610239, 45.9008166], [12.0611159, 45.9007116], [12.061239, 45.9005326], [12.0615978, 45.9003179], [12.0619008, 45.9001144], [12.0620116, 45.9000033], [12.0621073, 45.8998314], [12.0622091, 45.8996103], [12.0623693, 45.8993346], [12.0624041, 45.8992225], [12.0624861, 45.8991182], [12.0625306, 45.8990712], [12.063579, 45.8977992], [12.0638494, 45.8972859], [12.0636126, 45.8971338], [12.0625397, 45.8964768], [12.061938, 45.896082], [12.0613378, 45.8956317], [12.0611763, 45.8955725], [12.0610249, 45.8955367], [12.0607136, 45.8954653], [12.0604544, 45.8953863], [12.0602297, 45.8952942], [12.0599402, 45.8951425], [12.0594076, 45.894887], [12.0590311, 45.8947499], [12.058871, 45.8945548], [12.0586525, 45.8944932], [12.0582019, 45.8948457], [12.0577631, 45.8947715], [12.0576694, 45.8946668], [12.0567283, 45.8943991], [12.0552629, 45.8940153], [12.0546157, 45.8937964]]]}}, {"type": "Feature", "properties": {"name": "Pieve di Soligo", "osm_id": 46417}, "geometry": {"type": "Polygon", "coordinates": [[[12.1468827, 45.8899461], [12.1470344, 45.8898493], [12.1472286, 45.8897254], [12.1475085, 45.8895546], [12.1480897, 45.8892], [12.1484287, 45.8890132], [12.1485277, 45.8889586], [12.1489362, 45.888791], [12.1493074, 45.8886244], [12.1497108, 45.8883592], [12.1498464, 45.8882486], [12.1498726, 45.8881706], [12.149888, 45.888125], [12.1498653, 45.8880802], [12.1498398, 45.8880297], [12.1498333, 45.888017], [12.1497606, 45.8879546], [12.1496567, 45.8878655], [12.1495038, 45.8877303], [12.1494578, 45.8876673], [12.1493097, 45.8874646], [12.1490185, 45.8869241], [12.148567, 45.8861405], [12.1485585, 45.8861265], [12.1483517, 45.8857851], [12.1485204, 45.885642], [12.1487915, 45.8853556], [12.1490147, 45.8852124], [12.1496995, 45.884807], [12.1502289, 45.8845036], [12.150382, 45.8843623], [12.1508716, 45.8840993], [12.1510977, 45.8840098], [12.1515159, 45.8838466], [12.1517416, 45.8837474], [12.1519492, 45.8837025], [12.1521947, 45.8835832], [12.1525289, 45.8834223], [12.1529099, 45.8832209], [12.153201, 45.8830416], [12.1533816, 45.8828897], [12.1536192, 45.882756], [12.153846, 45.8826763], [12.1542803, 45.8826741], [12.1546017, 45.8826584], [12.1548227, 45.8825984], [12.155088, 45.8824589], [12.1554626, 45.8822675], [12.1557417, 45.8821228], [12.1558995, 45.8820646], [12.1562905, 45.8821614], [12.156481, 45.8822091], [12.1566957, 45.8822628], [12.1572002, 45.8818915], [12.1578234, 45.8813898], [12.1579258, 45.88134], [12.1581863, 45.8813621], [12.1583021, 45.8813366], [12.1584146, 45.8813118], [12.1586674, 45.8811971], [12.1588366, 45.8810897], [12.1591754, 45.8807621], [12.1594876, 45.8804598], [12.1598938, 45.8800864], [12.16036, 45.8796575], [12.1605579, 45.8794387], [12.1608459, 45.8792056], [12.1612373, 45.8789402], [12.1615405, 45.8787263], [12.1617218, 45.8785891], [12.1619685, 45.8783669], [12.1621254, 45.8781668], [12.1623178, 45.8778532], [12.1624424, 45.877704], [12.1627795, 45.8774695], [12.1630981, 45.8772796], [12.1634129, 45.8771485], [12.1638221, 45.8769512], [12.1640542, 45.876842], [12.1644861, 45.876551], [12.1646669, 45.8765293], [12.1652435, 45.8765623], [12.1656996, 45.8763297], [12.1664547, 45.8759329], [12.1672875, 45.8759955], [12.1677966, 45.8760669], [12.1678842, 45.8763416], [12.1680329, 45.876544], [12.1681998, 45.8766905], [12.1684111, 45.8768544], [12.1686465, 45.8769335], [12.1691834, 45.8769891], [12.1696776, 45.877056], [12.1700197, 45.877112], [12.1706485, 45.8772608], [12.1712724, 45.87745], [12.1720386, 45.8777332], [12.1732846, 45.8782073], [12.1738304, 45.8784189], [12.1748016, 45.8787546], [12.1754702, 45.8789678], [12.1756262, 45.8790459], [12.1766683, 45.8797422], [12.1773301, 45.8802175], [12.177691, 45.8804744], [12.1781123, 45.88078], [12.1780798, 45.8808414], [12.1779164, 45.8811381], [12.1778628, 45.881336], [12.1778541, 45.8815629], [12.1778826, 45.881683], [12.177939, 45.8817873], [12.1785648, 45.8817402], [12.1790019, 45.8817073], [12.1790377, 45.8815753], [12.17901, 45.8814703], [12.1789524, 45.881346], [12.1787765, 45.8811695], [12.1787315, 45.8810146], [12.1788181, 45.8807604], [12.1789569, 45.8806659], [12.1792144, 45.8806284], [12.1794993, 45.8804619], [12.1800833, 45.8799625], [12.1802759, 45.8798011], [12.1804045, 45.8795307], [12.180478, 45.8793022], [12.1805195, 45.879145], [12.1805412, 45.8788953], [12.1806097, 45.8787071], [12.1807719, 45.8785164], [12.181026, 45.8782979], [12.1813445, 45.8780726], [12.1816882, 45.877907], [12.1820042, 45.8777623], [12.1823689, 45.8775861], [12.1825943, 45.8773809], [12.1826746, 45.877273], [12.1828692, 45.8770209], [12.1830413, 45.8767544], [12.1831751, 45.8764487], [12.1833018, 45.8761431], [12.1833398, 45.8757998], [12.1833946, 45.8756095], [12.1835074, 45.8754403], [12.1835734, 45.8752069], [12.183685, 45.8750175], [12.1838865, 45.8747603], [12.1840108, 45.8745403], [12.1840131, 45.874203], [12.1839569, 45.8740719], [12.1839205, 45.8739867], [12.1838189, 45.8737228], [12.1837324, 45.8734685], [12.1835716, 45.8730501], [12.1835601, 45.8728491], [12.1835785, 45.8726674], [12.1837022, 45.8723243], [12.1838746, 45.8719369], [12.1839359, 45.8716231], [12.1839593, 45.8714011], [12.1839285, 45.871115], [12.1838721, 45.8707718], [12.1837987, 45.870497], [12.1836853, 45.8702787], [12.1835758, 45.8698741], [12.1834624, 45.86953], [12.1833081, 45.8690888], [12.1830523, 45.868648], [12.1829096, 45.8682946], [12.1828095, 45.86793], [12.1827259, 45.8676077], [12.1825217, 45.8673113], [12.182322, 45.8669696], [12.182264, 45.8667095], [12.1822419, 45.86633], [12.1822052, 45.8658127], [12.1822806, 45.8654935], [12.1823272, 45.8651753], [12.1823718, 45.8649828], [12.1829373, 45.8644788], [12.1832781, 45.8641422], [12.1833715, 45.8640699], [12.1835147, 45.8642334], [12.1837562, 45.8646246], [12.1839526, 45.8648392], [12.1844676, 45.8654186], [12.184946, 45.8659685], [12.1851846, 45.8663108], [12.1853246, 45.866613], [12.1852952, 45.8667117], [12.1850742, 45.8672779], [12.1850501, 45.8673401], [12.1848299, 45.867909], [12.184531, 45.8688109], [12.1843912, 45.8692762], [12.1842499, 45.8697506], [12.1840847, 45.8702762], [12.1843376, 45.8704083], [12.1845111, 45.870532], [12.1846504, 45.8706689], [12.1847223, 45.870777], [12.1848143, 45.8709305], [12.1848998, 45.8710475], [12.1850041, 45.8711088], [12.1851734, 45.8711581], [12.1854565, 45.8712053], [12.1857402, 45.8712647], [12.1861506, 45.871394], [12.1865542, 45.8715572], [12.1869197, 45.8717428], [12.1870516, 45.8717514], [12.1871972, 45.8718452], [12.1873945, 45.8720019], [12.187524, 45.8721207], [12.1875854, 45.8721982], [12.1877552, 45.8724107], [12.187813, 45.8725009], [12.1879996, 45.8727007], [12.1880397, 45.8728649], [12.1880985, 45.8729734], [12.1882424, 45.8731915], [12.1883482, 45.8733569], [12.1884123, 45.873404], [12.1885681, 45.8734486], [12.1888211, 45.8735823], [12.1890279, 45.873751], [12.1891842, 45.8738782], [12.1893488, 45.8739991], [12.1894206, 45.8740716], [12.1894697, 45.8741212], [12.1896212, 45.8742428], [12.1899384, 45.8744267], [12.190301, 45.8746369], [12.1905494, 45.8747676], [12.190647, 45.8748659], [12.1907144, 45.8749711], [12.1907085, 45.8751733], [12.1907241, 45.8752941], [12.1907544, 45.8754402], [12.1908475, 45.875612], [12.190956, 45.8758232], [12.1911465, 45.8760902], [12.1913592, 45.8763611], [12.1915784, 45.8766702], [12.191587, 45.8768199], [12.1915991, 45.8770307], [12.1916476, 45.877189], [12.191729, 45.8773091], [12.1919676, 45.8774983], [12.1922539, 45.8777535], [12.192456, 45.8779926], [12.1925355, 45.8781559], [12.1925932, 45.8783225], [12.1926461, 45.8784037], [12.1927444, 45.8785907], [12.1927624, 45.8787524], [12.1927437, 45.8791903], [12.1927259, 45.8795677], [12.1926609, 45.8798082], [12.1926096, 45.8801371], [12.1926194, 45.8803077], [12.192575, 45.8809087], [12.1925151, 45.8810875], [12.1923701, 45.8811558], [12.1921696, 45.8811737], [12.1918387, 45.881134], [12.1914056, 45.8811461], [12.190954, 45.8812933], [12.1907647, 45.8814302], [12.1907225, 45.8815354], [12.1907293, 45.8817311], [12.1907879, 45.8819131], [12.1909808, 45.8823732], [12.191055, 45.8825976], [12.1911191, 45.8827223], [12.1912313, 45.8829211], [12.1913885, 45.8832932], [12.1913657, 45.8834315], [12.1911198, 45.883805], [12.1909184, 45.8841136], [12.1907499, 45.8843846], [12.1906764, 45.8845549], [12.1905746, 45.8846894], [12.1905979, 45.8847906], [12.190631, 45.8849855], [12.1906575, 45.8852939], [12.1908183, 45.8855005], [12.1910458, 45.8857237], [12.1912049, 45.8858233], [12.191299, 45.8859362], [12.19137, 45.8861821], [12.1913137, 45.8862693], [12.1912794, 45.886359], [12.1913226, 45.8865782], [12.1913855, 45.8868345], [12.1914286, 45.8871271], [12.1914951, 45.8872936], [12.1916421, 45.8874884], [12.1917963, 45.8876554], [12.1919286, 45.8878234], [12.1920454, 45.8879487], [12.1922305, 45.8881975], [12.1922902, 45.8883213], [12.1923189, 45.8884399], [12.1923443, 45.8885769], [12.1924054, 45.8887251], [12.1925425, 45.8888995], [12.1928263, 45.8890354], [12.1930549, 45.8892003], [12.1932637, 45.8894026], [12.1934682, 45.8896057], [12.1938312, 45.8900515], [12.194026, 45.8903918], [12.1940957, 45.8905368], [12.1941448, 45.8906302], [12.1942276, 45.8906983], [12.1941821, 45.8907041], [12.194071, 45.8907182], [12.1938169, 45.8907192], [12.1932899, 45.8907002], [12.1928979, 45.8907418], [12.1926386, 45.8908042], [12.1923899, 45.8908233], [12.1922906, 45.8908506], [12.1920435, 45.8908973], [12.1917388, 45.8910099], [12.1915883, 45.8911365], [12.1915311, 45.8913615], [12.1915689, 45.891715], [12.191627, 45.8918878], [12.1917685, 45.8920614], [12.1918987, 45.8921924], [12.1920837, 45.8923616], [12.1923816, 45.8925889], [12.1925808, 45.8927], [12.1927532, 45.8928023], [12.1929517, 45.8929773], [12.1931922, 45.893197], [12.193381, 45.893357], [12.1936248, 45.8934817], [12.1938665, 45.8935698], [12.1939497, 45.8935675], [12.1940695, 45.8934417], [12.1942122, 45.8933306], [12.1943244, 45.8933], [12.1944176, 45.8933218], [12.1945372, 45.8934195], [12.1946324, 45.8935515], [12.1946725, 45.8936382], [12.1949653, 45.8940064], [12.1952081, 45.8943423], [12.1954403, 45.894646], [12.1956976, 45.8949295], [12.1958081, 45.8951743], [12.1957831, 45.8952729], [12.1956807, 45.8953217], [12.1953665, 45.8953458], [12.1952806, 45.8953757], [12.1952118, 45.8954756], [12.1952407, 45.8955971], [12.1953532, 45.8958009], [12.195477, 45.8959718], [12.1956219, 45.8961299], [12.1957483, 45.8962702], [12.1957812, 45.8963856], [12.1957161, 45.8964731], [12.1956207, 45.8965675], [12.1956211, 45.8966501], [12.195747, 45.8967812], [12.195859, 45.8969005], [12.1959322, 45.89703], [12.1960778, 45.8972003], [12.1963032, 45.8973867], [12.1966153, 45.8975555], [12.1966702, 45.8976732], [12.1966226, 45.8977602], [12.1964898, 45.8978129], [12.1963417, 45.8978293], [12.1962019, 45.8978363], [12.1961056, 45.8978359], [12.195878, 45.8977658], [12.1956133, 45.8975835], [12.1954514, 45.8974351], [12.1951926, 45.8972006], [12.1949707, 45.8970753], [12.1949007, 45.8970772], [12.194825, 45.8970942], [12.1946229, 45.897308], [12.1944882, 45.8974769], [12.1944317, 45.8975476], [12.1942319, 45.8976377], [12.1940229, 45.8978908], [12.1939756, 45.8980417], [12.1938948, 45.8982586], [12.1939782, 45.8984124], [12.1941427, 45.8985184], [12.1942856, 45.898573], [12.1945024, 45.8986189], [12.1947478, 45.8986705], [12.1950216, 45.8987344], [12.1960082, 45.8990717], [12.1960723, 45.8990919], [12.1963498, 45.8992146], [12.1965959, 45.8993072], [12.1968207, 45.8994554], [12.1969669, 45.8996006], [12.1970368, 45.8997908], [12.1970723, 45.8999821], [12.1970725, 45.8999855], [12.1971585, 45.9001993], [12.1972744, 45.9003334], [12.1974087, 45.9004463], [12.1974777, 45.9005336], [12.1976029, 45.9005747], [12.1977433, 45.9005364], [12.197918, 45.9004115], [12.1981108, 45.9001726], [12.1982446, 45.9001071], [12.198393, 45.9000377], [12.198481, 45.8999426], [12.1984946, 45.899496], [12.1986316, 45.8993995], [12.1987549, 45.8994063], [12.1991614, 45.8996352], [12.1992262, 45.8997363], [12.1992108, 45.9000663], [12.1991859, 45.9004119], [12.1991306, 45.9007326], [12.1989696, 45.900926], [12.1986118, 45.9012003], [12.1984623, 45.9013349], [12.1982095, 45.9015668], [12.1979415, 45.9018626], [12.1976904, 45.9021991], [12.1974094, 45.9026], [12.1971873, 45.9028396], [12.1969962, 45.9030235], [12.1968484, 45.9031031], [12.1967199, 45.9031788], [12.1966704, 45.9033415], [12.1966148, 45.9034014], [12.196454, 45.9034265], [12.1961988, 45.9034336], [12.1959696, 45.9033817], [12.1955754, 45.9032794], [12.195383, 45.9031819], [12.1953101, 45.903026], [12.1952348, 45.9028291], [12.1951475, 45.9027628], [12.1949981, 45.9027293], [12.1948589, 45.9027881], [12.194767, 45.9029005], [12.194703, 45.9030705], [12.1946414, 45.9033674], [12.1946465, 45.9033707], [12.1943075, 45.9039657], [12.1943013, 45.9039743], [12.1941074, 45.9040808], [12.1938627, 45.9041872], [12.1937493, 45.9042659], [12.1937335, 45.904335], [12.1939276, 45.9044617], [12.1941444, 45.9045552], [12.1942732, 45.9046579], [12.1942713, 45.9049669], [12.1943304, 45.9051403], [12.1943021, 45.9052475], [12.1943224, 45.905343], [12.194432, 45.9053674], [12.1945394, 45.9053419], [12.1945629, 45.9053363], [12.1948317, 45.9052224], [12.1951496, 45.9051071], [12.1953011, 45.9050925], [12.1953984, 45.9051585], [12.1954383, 45.9052569], [12.1954052, 45.9053642], [12.1952101, 45.9055705], [12.1949755, 45.9058516], [12.1949792, 45.9059168], [12.1950382, 45.9060009], [12.1952211, 45.9061056], [12.1954291, 45.9062165], [12.1956546, 45.9063749], [12.1958351, 45.9065209], [12.1959943, 45.9067206], [12.1961225, 45.9068989], [12.1962281, 45.9070264], [12.1963617, 45.9071257], [12.1964508, 45.9072227], [12.1964827, 45.9073488], [12.1964144, 45.9075292], [12.1963023, 45.9077194], [12.1962299, 45.9079137], [12.1961133, 45.9082808], [12.196079, 45.9084534], [12.1960508, 45.9086463], [12.1960918, 45.9087619], [12.1961829, 45.9088932], [12.1961784, 45.9089809], [12.1960518, 45.9092589], [12.1960699, 45.9094884], [12.1961263, 45.9096997], [12.1961264, 45.9097031], [12.1962422, 45.9099195], [12.1963846, 45.910106], [12.1965483, 45.9102147], [12.1967494, 45.9103772], [12.1967875, 45.9105272], [12.1967019, 45.9106635], [12.1964943, 45.9107311], [12.1962367, 45.9106971], [12.1960274, 45.910648], [12.1957155, 45.9106122], [12.1954308, 45.9105343], [12.1952172, 45.9104956], [12.1949617, 45.9104136], [12.1948629, 45.9103202], [12.1947665, 45.9101823], [12.1946286, 45.9100934], [12.1944612, 45.9100878], [12.19436, 45.910125], [12.1942581, 45.9102342], [12.1942457, 45.9103615], [12.1942766, 45.9104705], [12.1944282, 45.9106276], [12.1946025, 45.9107532], [12.1947959, 45.9108644], [12.1949887, 45.9109689], [12.1951714, 45.9110667], [12.1954445, 45.9112187], [12.1956771, 45.9114147], [12.1959069, 45.9116485], [12.1960821, 45.9118736], [12.1962322, 45.9120891], [12.1962326, 45.9120959], [12.196408, 45.9122402], [12.1963984, 45.9122439], [12.1966763, 45.9124593], [12.1969215, 45.912703], [12.1969833, 45.9128386], [12.1969625, 45.9129816], [12.1968383, 45.9133866], [12.1967876, 45.9136146], [12.1967589, 45.9138007], [12.1967964, 45.9140262], [12.1968779, 45.914247], [12.1969614, 45.9143305], [12.1970769, 45.9143719], [12.1971792, 45.9143552], [12.197255, 45.9143051], [12.19749, 45.9140308], [12.1976975, 45.9137916], [12.1978611, 45.9136428], [12.1979705, 45.913578], [12.1980753, 45.913606], [12.19816, 45.91371], [12.1981846, 45.9138809], [12.1981361, 45.9140797], [12.1978082, 45.9142776], [12.1976068, 45.9144515], [12.1975049, 45.9146465], [12.1974834, 45.9149406], [12.1974368, 45.9152405], [12.1973745, 45.9155271], [12.197354, 45.9156821], [12.1974427, 45.9157724], [12.1975863, 45.9158747], [12.1977843, 45.9160631], [12.1978603, 45.916188], [12.1978551, 45.9163529], [12.1978376, 45.916477], [12.1979037, 45.9165987], [12.1980317, 45.9166878], [12.1983178, 45.9168754], [12.1984817, 45.9169875], [12.198578, 45.9170398], [12.1988036, 45.9170265], [12.1990112, 45.9169624], [12.1991283, 45.9168595], [12.1992458, 45.9168494], [12.1994567, 45.9169259], [12.1995956, 45.9171176], [12.1996534, 45.917267], [12.1995712, 45.9175474], [12.1995295, 45.9177647], [12.1995128, 45.9179951], [12.1995785, 45.9183675], [12.199556, 45.9186598], [12.1995333, 45.9191203], [12.1994937, 45.9195437], [12.1995224, 45.9197007], [12.1996028, 45.919901], [12.1997279, 45.9200245], [12.1998622, 45.9201374], [12.2000249, 45.9202289], [12.2002916, 45.9203347], [12.2005284, 45.9204345], [12.2008239, 45.9205258], [12.2010135, 45.9205736], [12.2013239, 45.9205855], [12.2016494, 45.9206004], [12.2018502, 45.9206703], [12.2019568, 45.9208149], [12.2019453, 45.9209559], [12.2018495, 45.9210856], [12.2017044, 45.9212133], [12.2015941, 45.9213468], [12.2015334, 45.9214892], [12.2015605, 45.9216189], [12.2016594, 45.9217122], [12.2017802, 45.9217757], [12.2018364, 45.9217824], [12.2019437, 45.9217952], [12.2020812, 45.9217913], [12.2022128, 45.9218563], [12.2022297, 45.9220652], [12.2021777, 45.9223584], [12.2021411, 45.9226615], [12.2020891, 45.922783], [12.2019123, 45.922788], [12.2017992, 45.9228736], [12.2016777, 45.9229834], [12.2016729, 45.922987], [12.2016538, 45.9230802], [12.2017237, 45.9232704], [12.201807, 45.9234363], [12.2018046, 45.9236491], [12.2017167, 45.9237477], [12.2015782, 45.9238168], [12.2013915, 45.9238221], [12.2012168, 45.9237755], [12.200938, 45.9236323], [12.2006104, 45.923408], [12.2004083, 45.9232318], [12.2002406, 45.9230511], [12.2000338, 45.922875], [12.1998202, 45.9226682], [12.1996803, 45.9225451], [12.1994657, 45.9224894], [12.1994133, 45.9224359], [12.1994158, 45.9223089], [12.1995372, 45.9221098], [12.1996508, 45.9219453], [12.1996095, 45.9218263], [12.1994071, 45.9218148], [12.1991866, 45.9219137], [12.1989178, 45.9221135], [12.1987287, 45.9223315], [12.1987239, 45.9224209], [12.1987378, 45.9227466], [12.1987373, 45.9229937], [12.1987297, 45.9232926], [12.1986445, 45.9236073], [12.1985641, 45.9238327], [12.1984527, 45.9240349], [12.1984375, 45.924068], [12.1983565, 45.9242435], [12.1982692, 45.9245119], [12.198247, 45.9247253], [12.1982116, 45.9249631], [12.1981527, 45.9251364], [12.1979726, 45.9252547], [12.1978251, 45.9253412], [12.1977576, 45.9254495], [12.1977262, 45.9255877], [12.1976854, 45.9257278], [12.1976718, 45.9258346], [12.1976939, 45.925961], [12.1977258, 45.9260905], [12.1978326, 45.9262351], [12.1978379, 45.9263277], [12.197751, 45.9264433], [12.1976918, 45.9265239], [12.1977061, 45.9266025], [12.1978085, 45.9266717], [12.1979385, 45.9267092], [12.1982443, 45.9267247], [12.198409, 45.9267647], [12.1985798, 45.9268285], [12.1986781, 45.9269116], [12.1987033, 45.927019], [12.1986297, 45.9271069], [12.1984662, 45.9271699], [12.1981876, 45.9272016], [12.1978413, 45.9272525], [12.197575, 45.9273252], [12.1972776, 45.9274571], [12.1971514, 45.9275705], [12.197085, 45.9276993], [12.1970921, 45.9278227], [12.1971577, 45.9279375], [12.1973339, 45.928178], [12.1975037, 45.928393], [12.1976285, 45.9285954], [12.1976713, 45.9287418], [12.1976975, 45.9289402], [12.1976685, 45.9292105], [12.1975964, 45.9296655], [12.1975632, 45.9300303], [12.1975025, 45.9304181], [12.1974532, 45.9306735], [12.1973249, 45.9308384], [12.197159, 45.9308602], [12.1967942, 45.9308464], [12.1964316, 45.9308703], [12.1962898, 45.9309704], [12.1962236, 45.9311027], [12.1961581, 45.931331], [12.1960488, 45.9316721], [12.195855, 45.9320654], [12.1957143, 45.93244], [12.1957073, 45.9325775], [12.1956327, 45.9328113], [12.1954985, 45.9331309], [12.1953487, 45.9334337], [12.1952847, 45.9336036], [12.1952535, 45.9337452], [12.1951999, 45.9338445], [12.1950714, 45.9340059], [12.1949632, 45.9341772], [12.1948949, 45.9343576], [12.1948071, 45.9345419], [12.1947999, 45.9346725], [12.1947197, 45.934819], [12.1945843, 45.9349463], [12.1944145, 45.9350712], [12.1941796, 45.9352477], [12.1939784, 45.9353426], [12.1937727, 45.9354444], [12.1935398, 45.9355848], [12.1932829, 45.9357361], [12.1930657, 45.9358108], [12.1927668, 45.9359153], [12.1925919, 45.9359545], [12.1924262, 45.9359797], [12.1924182, 45.9359796], [12.1922193, 45.9359753], [12.1919195, 45.9359801], [12.1914806, 45.9359615], [12.1912118, 45.9359931], [12.1911071, 45.9360544], [12.1911024, 45.9361351], [12.1911172, 45.9363063], [12.1911225, 45.9364847], [12.1911251, 45.936615], [12.1911691, 45.936782], [12.1911956, 45.9369013], [12.1912377, 45.9370341], [12.1912543, 45.9371537], [12.1912315, 45.9372676], [12.1912709, 45.9373746], [12.1913516, 45.9374959], [12.1915223, 45.9376388], [12.1914935, 45.9379931], [12.1914881, 45.9382437], [12.1914671, 45.9384778], [12.191422, 45.9386335], [12.191306, 45.938671], [12.1911913, 45.9386434], [12.1910601, 45.9385852], [12.1910066, 45.9385885], [12.1910108, 45.9387463], [12.1910069, 45.9388493], [12.191081, 45.93894], [12.1911666, 45.9390611], [12.1911475, 45.9391577], [12.1910635, 45.9392356], [12.1910585, 45.9392394], [12.1908985, 45.9393603], [12.1908521, 45.9393597], [12.1906523, 45.939357], [12.1904142, 45.9394082], [12.1900012, 45.9394987], [12.1898977, 45.9395225], [12.189336, 45.9396512], [12.189149, 45.9396495], [12.1890613, 45.9397514], [12.1885059, 45.9396624], [12.188023, 45.9395625], [12.1874777, 45.9394062], [12.1873701, 45.9395877], [12.1871323, 45.9396458], [12.1866458, 45.9397418], [12.1857673, 45.9399533], [12.185285, 45.9400354], [12.1848643, 45.940078], [12.1844408, 45.9401143], [12.1842083, 45.9401341], [12.1839359, 45.9401005], [12.1836938, 45.9400632], [12.1818833, 45.9397202], [12.1800799, 45.9394941], [12.1800801, 45.9394975], [12.1798532, 45.9393151], [12.1797438, 45.9392941], [12.179086, 45.9391476], [12.1782539, 45.9389649], [12.1776332, 45.9387779], [12.1772949, 45.9386261], [12.1770944, 45.9384738], [12.1764686, 45.9382853], [12.1758779, 45.938106], [12.1757352, 45.9381066], [12.1750632, 45.938144], [12.1745956, 45.938133], [12.1741484, 45.9380494], [12.1735623, 45.9379457], [12.1724969, 45.937711], [12.1722384, 45.9376598], [12.1715669, 45.9375241], [12.1711783, 45.9376069], [12.1707707, 45.9377006], [12.1703037, 45.9375283], [12.169878, 45.9373927], [12.1696036, 45.9372357], [12.1695275, 45.9371074], [12.1692398, 45.9371496], [12.1689243, 45.9371344], [12.1686327, 45.9371083], [12.1684511, 45.9370275], [12.168364, 45.9369648], [12.1681749, 45.9368396], [12.1680793, 45.9368027], [12.1682017, 45.9367327], [12.1684943, 45.936504], [12.1687098, 45.9362948], [12.1687393, 45.9361899], [12.1686853, 45.9360526], [12.1686767, 45.9359648], [12.1687365, 45.9357673], [12.1687491, 45.9356157], [12.1687954, 45.935493], [12.1688276, 45.9353732], [12.1687356, 45.9351861], [12.1686189, 45.9350108], [12.1685105, 45.9347907], [12.1686226, 45.9348273], [12.1688215, 45.9348242], [12.1689755, 45.9347828], [12.1691096, 45.9347047], [12.1691604, 45.9346054], [12.1690987, 45.9345203], [12.168873, 45.9344275], [12.1685101, 45.9342293], [12.1684332, 45.9341273], [12.1682684, 45.9338703], [12.1681779, 45.9337787], [12.1680039, 45.9337165], [12.167705, 45.9335835], [12.1676332, 45.9335062], [12.1675501, 45.9333598], [12.1674075, 45.9332249], [12.1672256, 45.9330378], [12.1671151, 45.9329071], [12.166978, 45.9328092], [12.166954, 45.9327045], [12.1669197, 45.9323535], [12.1668521, 45.9322884], [12.1667401, 45.9322543], [12.1666014, 45.9321913], [12.1665552, 45.9321281], [12.1665408, 45.9320616], [12.1664914, 45.9320059], [12.1663586, 45.9319749], [12.1662623, 45.9319057], [12.1662091, 45.9317832], [12.1661602, 45.931735], [12.1659982, 45.9316353], [12.165917, 45.9315186], [12.1658471, 45.931476], [12.1657729, 45.931421], [12.1657259, 45.931281], [12.1657194, 45.9311671], [12.1656962, 45.9311314], [12.1656094, 45.9309979], [12.16558, 45.9309194], [12.1655497, 45.9308236], [12.165468, 45.9306994], [12.165323, 45.9305844], [12.1652639, 45.9304819], [12.1652754, 45.9303838], [12.1653719, 45.9302696], [12.165438, 45.930119], [12.1654729, 45.9300461], [12.1656104, 45.9299035], [12.1656631, 45.9298327], [12.1656635, 45.9296517], [12.1656958, 45.9295642], [12.1657005, 45.9295515], [12.1657952, 45.9293432], [12.1657909, 45.9292688], [12.1657718, 45.9291826], [12.1658434, 45.9290605], [12.1658324, 45.9289183], [12.165809, 45.9287603], [12.1657651, 45.9285483], [12.1657676, 45.9283425], [12.1658649, 45.9281812], [12.1659334, 45.9281383], [12.1660757, 45.9280154], [12.1661207, 45.9279324], [12.1661156, 45.9277813], [12.1661713, 45.9274476], [12.1662437, 45.9273464], [12.1663639, 45.9272142], [12.1664342, 45.9271441], [12.1666407, 45.9269649], [12.1666878, 45.9269202], [12.1667917, 45.9268107], [12.166987, 45.9264979], [12.1668429, 45.9264622], [12.1667188, 45.9264037], [12.1662163, 45.926109], [12.1659806, 45.9259643], [12.1657738, 45.9258238], [12.1656948, 45.9257467], [12.165695, 45.9257223], [12.165547, 45.9256193], [12.1654184, 45.92552], [12.1652603, 45.9254386], [12.1651785, 45.9254066], [12.1650846, 45.9253749], [12.1649241, 45.9253621], [12.1648263, 45.9253692], [12.1647216, 45.9253635], [12.1646094, 45.9253366], [12.1645093, 45.9253051], [12.1643958, 45.9252525], [12.1643008, 45.9252036], [12.1642307, 45.9251584], [12.1641735, 45.9251257], [12.1641102, 45.9250932], [12.1640212, 45.9250399], [12.1639631, 45.9249901], [12.163893, 45.9249449], [12.1638356, 45.9249079], [12.1637781, 45.9248709], [12.1637014, 45.9248173], [12.1636503, 45.9247844], [12.1635983, 45.9247344], [12.1635334, 45.9246719], [12.1634828, 45.9246476], [12.1633899, 45.924633], [12.1632971, 45.9246227], [12.163223, 45.9246162], [12.1631602, 45.9245922], [12.1631159, 45.9245677], [12.1630398, 45.9245269], [12.1629814, 45.9244728], [12.1629555, 45.9244478], [12.1628988, 45.9244236], [12.1628365, 45.9244083], [12.1627872, 45.9244053], [12.162726, 45.9244113], [12.1626097, 45.9244188], [12.162542, 45.9244164], [12.1624802, 45.9244096], [12.1623747, 45.924391], [12.1623065, 45.92438], [12.1622443, 45.9243646], [12.1621694, 45.9243453], [12.1620813, 45.9243091], [12.1619494, 45.9242571], [12.1618917, 45.9242157], [12.161828, 45.9241747], [12.1617765, 45.9241332], [12.1616999, 45.9240695], [12.1616213, 45.9239961], [12.1615447, 45.9239467], [12.1614996, 45.9239094], [12.1614604, 45.9238676], [12.1614216, 45.9238344], [12.1613833, 45.9238097], [12.1613567, 45.9237719], [12.1613427, 45.9237422], [12.1613093, 45.923696], [12.1612946, 45.9236536], [12.1612608, 45.9235988], [12.1612653, 45.9235686], [12.161236, 45.9234879], [12.1612018, 45.9234246], [12.161166, 45.9233355], [12.1611626, 45.9232757], [12.161158, 45.9231944], [12.1611546, 45.9231344], [12.1611683, 45.9230526], [12.1611514, 45.9229716], [12.1610962, 45.9228659], [12.1610281, 45.9227221], [12.1610048, 45.922637], [12.1609775, 45.9225906], [12.1609325, 45.9225532], [12.1608384, 45.9225215], [12.1607688, 45.9224848], [12.1607058, 45.9224566], [12.1606044, 45.9224036], [12.1605787, 45.9223829], [12.1604768, 45.9223214], [12.1604001, 45.9222678], [12.1603353, 45.9222095], [12.1602708, 45.9221556], [12.1602304, 45.9220924], [12.1601899, 45.9220292], [12.160162, 45.92197], [12.1601277, 45.9219066], [12.1601047, 45.9218258], [12.1600824, 45.9217578], [12.1600541, 45.9216942], [12.1600446, 45.9216345], [12.1600233, 45.9215836], [12.1600081, 45.9215326], [12.1600051, 45.9214812], [12.1600074, 45.9214125], [12.1600102, 45.9213524], [12.1600068, 45.9212925], [12.160009, 45.9212238], [12.1600002, 45.9211768], [12.159973, 45.9211304], [12.1599447, 45.921067], [12.1599293, 45.9210116], [12.1598249, 45.920903], [12.1597782, 45.92084], [12.1597265, 45.9207943], [12.1596494, 45.920735], [12.1595737, 45.9206985], [12.1594735, 45.920667], [12.1593734, 45.9206354], [12.1592911, 45.9205948], [12.1591963, 45.920546], [12.1591136, 45.9204968], [12.159, 45.9204443], [12.1589067, 45.9203831], [12.1587829, 45.9202833], [12.1586502, 45.9202045], [12.1586051, 45.9201619], [12.1585372, 45.9201163], [12.1584904, 45.9200895], [12.1584407, 45.9200576], [12.1584015, 45.9200306], [12.1583646, 45.92], [12.1583122, 45.9199629], [12.1582778, 45.9199322], [12.1582277, 45.9198915], [12.1581883, 45.919861], [12.1581331, 45.9197749], [12.1580683, 45.9196976], [12.1580467, 45.919628], [12.15803, 45.9195531], [12.158026, 45.919483], [12.1580147, 45.9194184], [12.1580031, 45.9193467], [12.1579872, 45.9192876], [12.1579579, 45.9192054], [12.1579786, 45.9190306], [12.1579796, 45.9189632], [12.1579754, 45.9188924], [12.157954, 45.9188384], [12.1579334, 45.9188003], [12.1579053, 45.9187141], [12.1578639, 45.9186348], [12.1578, 45.9185625], [12.1577323, 45.9185066], [12.1576692, 45.9184473], [12.1576159, 45.9183975], [12.1575527, 45.9183383], [12.1574846, 45.9182788], [12.1574178, 45.9182265], [12.157336, 45.9181645], [12.157274, 45.9181214], [12.1572108, 45.9180743], [12.1571534, 45.9180373], [12.1570822, 45.9180006], [12.1570202, 45.9179669], [12.1569538, 45.9179272], [12.1568816, 45.9178869], [12.1567735, 45.9178449], [12.156644, 45.9178387], [12.1563167, 45.9177609], [12.156238, 45.9177534], [12.1559998, 45.9176958], [12.1559077, 45.9176855], [12.1557578, 45.9176574], [12.1556648, 45.9176406], [12.155552, 45.9176095], [12.1556125, 45.9175361], [12.1556906, 45.91745], [12.1557565, 45.9173904], [12.1558142, 45.9173533], [12.1559277, 45.9173247], [12.1560551, 45.9173113], [12.1564529, 45.9172455], [12.1565813, 45.9172356], [12.1566914, 45.9172197], [12.1569052, 45.9171623], [12.1570824, 45.917122], [12.1572235, 45.9170923], [12.157369, 45.9170661], [12.1575104, 45.9170331], [12.1576923, 45.9169926], [12.1578335, 45.9169631], [12.1579517, 45.916924], [12.1581132, 45.9168588], [12.1581645, 45.9168519], [12.1583856, 45.9167675], [12.1585433, 45.9167118], [12.1587108, 45.9166622], [12.1588603, 45.9166196], [12.1589825, 45.9165873], [12.159128, 45.9165411], [12.1592273, 45.9165096], [12.1593181, 45.9164779], [12.1594174, 45.9164429], [12.1595109, 45.9164088], [12.15961, 45.9163609], [12.1597257, 45.9162834], [12.1597543, 45.9162187], [12.1597543, 45.9161419], [12.159746, 45.9160717], [12.159728, 45.915995], [12.1597014, 45.9159278], [12.159669, 45.9158512], [12.1596501, 45.9157561], [12.1596355, 45.9156626], [12.159635, 45.9155793], [12.1596477, 45.915479], [12.159672, 45.9154202], [12.1597057, 45.9153682], [12.159735, 45.9153124], [12.1597724, 45.915254], [12.1598478, 45.9151901], [12.1599185, 45.9151433], [12.1600378, 45.9150043], [12.160149, 45.9148924], [12.1602368, 45.9148225], [12.1603354, 45.9147614], [12.1604329, 45.9147043], [12.1604961, 45.9146635], [12.160558, 45.9146232], [12.1606334, 45.9145797], [12.1607183, 45.9145357], [12.1608572, 45.9144641], [12.160983, 45.9144092], [12.1611142, 45.9143639], [12.1612145, 45.9143448], [12.1612872, 45.9143333], [12.1613918, 45.9143044], [12.161536, 45.9142525], [12.1616845, 45.9141937], [12.1617968, 45.9141423], [12.1618914, 45.9140979], [12.1620132, 45.9140527], [12.1620956, 45.9140408], [12.1622193, 45.9140278], [12.1625072, 45.9139876], [12.1627188, 45.9139913], [12.1629091, 45.914035], [12.1631755, 45.9140846], [12.1634652, 45.9142306], [12.1638221, 45.9144269], [12.1639872, 45.9144963], [12.1641255, 45.914573], [12.1642539, 45.9146435], [12.1644001, 45.9147067], [12.1645231, 45.9147614], [12.1646507, 45.9148127], [12.1647635, 45.9148605], [12.1648618, 45.9148904], [12.1649791, 45.9149224], [12.1650358, 45.9149224], [12.1650946, 45.9149224], [12.1652882, 45.9149236], [12.1654485, 45.9149192], [12.1656032, 45.9148729], [12.1656976, 45.914846], [12.1656976, 45.9148576], [12.1658006, 45.9148512], [12.1662585, 45.9147682], [12.1666895, 45.9146956], [12.1668805, 45.9146389], [12.1669799, 45.9145054], [12.1669896, 45.9142013], [12.1670494, 45.9139611], [12.1671188, 45.913529], [12.1672284, 45.9129863], [12.1673316, 45.912796], [12.1675609, 45.9125934], [12.1678147, 45.91246], [12.1680668, 45.9124157], [12.1682849, 45.9123675], [12.1686968, 45.9121876], [12.1691131, 45.9119705], [12.1694836, 45.9117732], [12.1698456, 45.911531], [12.1699461, 45.9113327], [12.1699828, 45.911013], [12.1699173, 45.9104489], [12.1698974, 45.9099854], [12.1698916, 45.9097656], [12.1692896, 45.909647], [12.168491, 45.9094679], [12.1677425, 45.9093061], [12.1677913, 45.9091067], [12.1672157, 45.9088797], [12.1666314, 45.9086154], [12.1668838, 45.9083418], [12.1672035, 45.9079589], [12.1673592, 45.9077584], [12.1676956, 45.9074264], [12.16752, 45.9073972], [12.1671882, 45.9073362], [12.1669388, 45.9072964], [12.1666697, 45.907285], [12.166309, 45.9072859], [12.166089, 45.9073057], [12.1659375, 45.9073382], [12.165738, 45.9073905], [12.1657001, 45.9073855], [12.1656149, 45.9073742], [12.1655625, 45.9073673], [12.1652906, 45.9075338], [12.1650039, 45.9076726], [12.164074, 45.9073384], [12.163643, 45.9071786], [12.1631705, 45.9070251], [12.1629402, 45.9069503], [12.1622628, 45.9066979], [12.161405, 45.9063336], [12.1608333, 45.9060549], [12.1600464, 45.9056068], [12.1600305, 45.9055977], [12.1602081, 45.9054245], [12.1606565, 45.9050661], [12.1610188, 45.9047241], [12.161353, 45.9043595], [12.1615846, 45.9039842], [12.161769, 45.9035476], [12.161969, 45.9030604], [12.162119, 45.9026905], [12.1619935, 45.9026554], [12.161581, 45.9025402], [12.1607018, 45.9023138], [12.1597262, 45.9020927], [12.1590166, 45.9019529], [12.1592369, 45.9015043], [12.1594748, 45.9010749], [12.1594743, 45.9010645], [12.1596614, 45.9007678], [12.1591258, 45.900642], [12.1590928, 45.9006342], [12.1587284, 45.900537], [12.1585695, 45.9005008], [12.1586131, 45.9003673], [12.1586764, 45.9002307], [12.1587111, 45.9001421], [12.1587286, 45.9000975], [12.1588113, 45.8998106], [12.1588689, 45.8995285], [12.1588746, 45.8994899], [12.1588768, 45.8994746], [12.1588786, 45.8994626], [12.1588882, 45.899397], [12.1589721, 45.8991048], [12.1589891, 45.8990669], [12.1590664, 45.8988022], [12.1590938, 45.8986294], [12.1590988, 45.8983869], [12.1590167, 45.898033], [12.1590139, 45.8980238], [12.1589692, 45.8979982], [12.1584813, 45.8977538], [12.1581879, 45.8976472], [12.1578874, 45.8976138], [12.1575604, 45.897585], [12.1571898, 45.8974872], [12.1568252, 45.8973708], [12.1560588, 45.8970194], [12.155686, 45.8968316], [12.1555077, 45.8965799], [12.1552875, 45.8963827], [12.1551087, 45.8963225], [12.154809, 45.8962396], [12.1547503, 45.8961239], [12.1547508, 45.8960361], [12.154751, 45.8959996], [12.1542607, 45.895749], [12.1536613, 45.8955023], [12.1531747, 45.8952541], [12.1528136, 45.8950942], [12.1525145, 45.8949222], [12.1523203, 45.8947904], [12.1522364, 45.8947228], [12.1512728, 45.8939349], [12.1510251, 45.8937994], [12.1507288, 45.8937737], [12.1503073, 45.8937775], [12.1501124, 45.893762], [12.1499827, 45.8937309], [12.1498809, 45.8936794], [12.1494833, 45.8933247], [12.1491232, 45.8929773], [12.1489047, 45.8927363], [12.1488215, 45.8925888], [12.1488375, 45.8925626], [12.1489692, 45.892419], [12.1489893, 45.8924005], [12.1491311, 45.8922701], [12.1491635, 45.8922403], [12.1486241, 45.8916728], [12.147749, 45.8907965], [12.147425, 45.8904771], [12.1468827, 45.8899461]]]}}, {"type": "Feature", "properties": {"name": "Sernaglia della Battaglia", "osm_id": 46303}, "geometry": {"type": "Polygon", "coordinates": [[[12.1067029, 45.8802714], [12.1070842, 45.8784908], [12.1072934, 45.8784053], [12.1075359, 45.8783067], [12.1077385, 45.8782163], [12.1079438, 45.878087], [12.1081403, 45.8779791], [12.1083713, 45.8778562], [12.1086601, 45.8777706], [12.1089292, 45.8776925], [12.1095199, 45.8775757], [12.1099361, 45.8775042], [12.1101361, 45.8774599], [12.1102702, 45.8774138], [12.1103595, 45.8772912], [12.1104583, 45.8770657], [12.1105541, 45.8769676], [12.1107691, 45.876831], [12.1109079, 45.8767777], [12.1115358, 45.8767818], [12.1120124, 45.8767848], [12.112107, 45.8767574], [12.112248, 45.876651], [12.1124667, 45.8763976], [12.1126053, 45.8762523], [12.1126747, 45.8762257], [12.1132922, 45.8762266], [12.1139441, 45.8762053], [12.1140298, 45.8760191], [12.1141086, 45.8758896], [12.1141795, 45.8757993], [12.1136829, 45.8756078], [12.1138328, 45.8753898], [12.1139796, 45.8750287], [12.1140444, 45.8746486], [12.1141865, 45.8741108], [12.1142141, 45.874068], [12.114285, 45.8739579], [12.114341, 45.8736913], [12.1144336, 45.8733563], [12.1146872, 45.8729146], [12.1148305, 45.8725659], [12.1148599, 45.8723672], [12.1148094, 45.8721882], [12.1147074, 45.871993], [12.1146443, 45.87168], [12.1145838, 45.8715102], [12.1145905, 45.8712696], [12.1146058, 45.8709086], [12.1146276, 45.8704837], [12.1146364, 45.8700221], [12.1145719, 45.8693238], [12.1145567, 45.8689653], [12.1147494, 45.8687019], [12.1151511, 45.8681925], [12.1151626, 45.868109], [12.1151468, 45.8680069], [12.1149648, 45.8677396], [12.1147962, 45.8674402], [12.1147259, 45.8672689], [12.1146654, 45.8670018], [12.1146664, 45.8669116], [12.1145858, 45.8666451], [12.1145214, 45.8663993], [12.1144595, 45.8661076], [12.1144325, 45.8658043], [12.1144593, 45.8653974], [12.1144438, 45.865237], [12.1144627, 45.8646137], [12.1144462, 45.8637815], [12.1144419, 45.8634316], [12.1144722, 45.8631744], [12.1144546, 45.8628602], [12.1144225, 45.8621964], [12.1143918, 45.8612939], [12.1146566, 45.8612336], [12.1146988, 45.86081], [12.1147611, 45.8602036], [12.1146896, 45.8600112], [12.1146289, 45.8599208], [12.1145573, 45.8598186], [12.1146239, 45.8597425], [12.1145247, 45.8596886], [12.1144761, 45.859453], [12.114468, 45.8592164], [12.1144831, 45.8587634], [12.1144295, 45.8586075], [12.1143369, 45.8584898], [12.1141175, 45.8583685], [12.1138005, 45.8582181], [12.1134879, 45.8580568], [12.1133303, 45.8579551], [12.1132704, 45.857879], [12.1132035, 45.8575873], [12.1131428, 45.857223], [12.1130884, 45.8567013], [12.1130903, 45.8563724], [12.1131111, 45.8561084], [12.1130374, 45.8559655], [12.1130099, 45.8553829], [12.1129911, 45.8551359], [12.1129896, 45.8549361], [12.1132184, 45.8543218], [12.1133543, 45.8539468], [12.1135689, 45.8532745], [12.1138888, 45.8519558], [12.1141058, 45.8507707], [12.1142844, 45.8497988], [12.1143473, 45.8495673], [12.1144523, 45.8490995], [12.114464, 45.8490738], [12.1146653, 45.8483175], [12.1149532, 45.8473572], [12.1150382, 45.8470976], [12.1155542, 45.8471309], [12.1156434, 45.8465882], [12.1152469, 45.8465516], [12.1152927, 45.8457376], [12.1152975, 45.8455366], [12.1153049, 45.8453064], [12.1153329, 45.8448065], [12.1153445, 45.8445858], [12.115376, 45.8436438], [12.1154385, 45.8427622], [12.1154377, 45.8422504], [12.1154562, 45.8417954], [12.1154885, 45.8412995], [12.1154944, 45.8411181], [12.1154991, 45.8410594], [12.1155031, 45.8409896], [12.1155715, 45.8407841], [12.115806, 45.8399955], [12.1161302, 45.8389534], [12.116418, 45.8379765], [12.1165894, 45.8374186], [12.1171577, 45.8377442], [12.1178311, 45.8380482], [12.1185267, 45.8384322], [12.11913, 45.8387506], [12.1203988, 45.8393894], [12.1213843, 45.839877], [12.1223163, 45.8403601], [12.1229268, 45.840691], [12.1241134, 45.8413245], [12.1246412, 45.8416959], [12.1338109, 45.8470688], [12.1345771, 45.8473123], [12.1360589, 45.8477863], [12.1371245, 45.8481165], [12.1392104, 45.8487617], [12.139947, 45.8490727], [12.140374, 45.8492907], [12.1410456, 45.8494912], [12.1427368, 45.8499138], [12.143433, 45.8501528], [12.1452088, 45.8506826], [12.1460734, 45.8509325], [12.148104, 45.8514161], [12.150248, 45.8521234], [12.151871, 45.8525243], [12.1526827, 45.8528276], [12.1549565, 45.8536485], [12.1573337, 45.8535309], [12.1597108, 45.8534104], [12.1612109, 45.8534157], [12.162878, 45.8532981], [12.1636139, 45.8535066], [12.1649393, 45.8538464], [12.1656965, 45.8540783], [12.1664956, 45.854058], [12.1668753, 45.8541086], [12.1674717, 45.8541105], [12.1681368, 45.8540179], [12.1686806, 45.8539422], [12.1692531, 45.8538344], [12.1710888, 45.8532658], [12.1719856, 45.853002], [12.1727194, 45.8528039], [12.1744518, 45.8522841], [12.1761414, 45.8517868], [12.1768672, 45.8516012], [12.1775797, 45.8513364], [12.1785727, 45.8510664], [12.1786102, 45.851145], [12.1786845, 45.851301], [12.1787918, 45.8515262], [12.1791729, 45.8522564], [12.1793637, 45.852622], [12.1795263, 45.8529416], [12.1798278, 45.8535341], [12.1798565, 45.8535982], [12.1799427, 45.8537907], [12.1801596, 45.8542753], [12.1803671, 45.854686], [12.1807063, 45.8552524], [12.1809674, 45.8558332], [12.181298, 45.8563968], [12.1815024, 45.8569057], [12.1816372, 45.8574226], [12.1817186, 45.8577756], [12.1818799, 45.8583133], [12.1819397, 45.8585933], [12.1820013, 45.858904], [12.1820218, 45.8597244], [12.18204, 45.8600424], [12.182005, 45.8605027], [12.1819701, 45.8608193], [12.1818717, 45.8609384], [12.1815786, 45.8610262], [12.1809003, 45.8611248], [12.1802942, 45.861258], [12.1800546, 45.8613627], [12.1798775, 45.861484], [12.17986, 45.8616376], [12.1798309, 45.8618958], [12.1804008, 45.8622045], [12.1813034, 45.862648], [12.1815841, 45.8628055], [12.1822088, 45.8631554], [12.1826549, 45.8634492], [12.1830811, 45.8637006], [12.1832919, 45.86386], [12.1833366, 45.8640301], [12.1833715, 45.8640699], [12.1832781, 45.8641422], [12.1829373, 45.8644788], [12.1823718, 45.8649828], [12.1823272, 45.8651753], [12.1822806, 45.8654935], [12.1822052, 45.8658127], [12.1822419, 45.86633], [12.182264, 45.8667095], [12.182322, 45.8669696], [12.1825217, 45.8673113], [12.1827259, 45.8676077], [12.1828095, 45.86793], [12.1829096, 45.8682946], [12.1830523, 45.868648], [12.1833081, 45.8690888], [12.1834624, 45.86953], [12.1835758, 45.8698741], [12.1836853, 45.8702787], [12.1837987, 45.870497], [12.1838721, 45.8707718], [12.1839285, 45.871115], [12.1839593, 45.8714011], [12.1839359, 45.8716231], [12.1838746, 45.8719369], [12.1837022, 45.8723243], [12.1835785, 45.8726674], [12.1835601, 45.8728491], [12.1835716, 45.8730501], [12.1837324, 45.8734685], [12.1838189, 45.8737228], [12.1839205, 45.8739867], [12.1839569, 45.8740719], [12.1840131, 45.874203], [12.1840108, 45.8745403], [12.1838865, 45.8747603], [12.183685, 45.8750175], [12.1835734, 45.8752069], [12.1835074, 45.8754403], [12.1833946, 45.8756095], [12.1833398, 45.8757998], [12.1833018, 45.8761431], [12.1831751, 45.8764487], [12.1830413, 45.8767544], [12.1828692, 45.8770209], [12.1826746, 45.877273], [12.1825943, 45.8773809], [12.1823689, 45.8775861], [12.1820042, 45.8777623], [12.1816882, 45.877907], [12.1813445, 45.8780726], [12.181026, 45.8782979], [12.1807719, 45.8785164], [12.1806097, 45.8787071], [12.1805412, 45.8788953], [12.1805195, 45.879145], [12.180478, 45.8793022], [12.1804045, 45.8795307], [12.1802759, 45.8798011], [12.1800833, 45.8799625], [12.1794993, 45.8804619], [12.1792144, 45.8806284], [12.1789569, 45.8806659], [12.1788181, 45.8807604], [12.1787315, 45.8810146], [12.1787765, 45.8811695], [12.1789524, 45.881346], [12.17901, 45.8814703], [12.1790377, 45.8815753], [12.1790019, 45.8817073], [12.1785648, 45.8817402], [12.177939, 45.8817873], [12.1778826, 45.881683], [12.1778541, 45.8815629], [12.1778628, 45.881336], [12.1779164, 45.8811381], [12.1780798, 45.8808414], [12.1781123, 45.88078], [12.177691, 45.8804744], [12.1773301, 45.8802175], [12.1766683, 45.8797422], [12.1756262, 45.8790459], [12.1754702, 45.8789678], [12.1748016, 45.8787546], [12.1738304, 45.8784189], [12.1732846, 45.8782073], [12.1720386, 45.8777332], [12.1712724, 45.87745], [12.1706485, 45.8772608], [12.1700197, 45.877112], [12.1696776, 45.877056], [12.1691834, 45.8769891], [12.1686465, 45.8769335], [12.1684111, 45.8768544], [12.1681998, 45.8766905], [12.1680329, 45.876544], [12.1678842, 45.8763416], [12.1677966, 45.8760669], [12.1672875, 45.8759955], [12.1664547, 45.8759329], [12.1656996, 45.8763297], [12.1652435, 45.8765623], [12.1646669, 45.8765293], [12.1644861, 45.876551], [12.1640542, 45.876842], [12.1638221, 45.8769512], [12.1634129, 45.8771485], [12.1630981, 45.8772796], [12.1627795, 45.8774695], [12.1624424, 45.877704], [12.1623178, 45.8778532], [12.1621254, 45.8781668], [12.1619685, 45.8783669], [12.1617218, 45.8785891], [12.1615405, 45.8787263], [12.1612373, 45.8789402], [12.1608459, 45.8792056], [12.1605579, 45.8794387], [12.16036, 45.8796575], [12.1598938, 45.8800864], [12.1594876, 45.8804598], [12.1591754, 45.8807621], [12.1588366, 45.8810897], [12.1586674, 45.8811971], [12.1584146, 45.8813118], [12.1583021, 45.8813366], [12.1581863, 45.8813621], [12.1579258, 45.88134], [12.1578234, 45.8813898], [12.1572002, 45.8818915], [12.1566957, 45.8822628], [12.156481, 45.8822091], [12.1562905, 45.8821614], [12.1558995, 45.8820646], [12.1557417, 45.8821228], [12.1554626, 45.8822675], [12.155088, 45.8824589], [12.1548227, 45.8825984], [12.1546017, 45.8826584], [12.1542803, 45.8826741], [12.153846, 45.8826763], [12.1536192, 45.882756], [12.1533816, 45.8828897], [12.153201, 45.8830416], [12.1529099, 45.8832209], [12.1525289, 45.8834223], [12.1521947, 45.8835832], [12.1519492, 45.8837025], [12.1517416, 45.8837474], [12.1515159, 45.8838466], [12.1510977, 45.8840098], [12.1508716, 45.8840993], [12.150382, 45.8843623], [12.1502289, 45.8845036], [12.1496995, 45.884807], [12.1490147, 45.8852124], [12.1487915, 45.8853556], [12.1485204, 45.885642], [12.1483517, 45.8857851], [12.1483449, 45.8857739], [12.148188, 45.8855724], [12.1479283, 45.8854675], [12.1476541, 45.8853708], [12.1475578, 45.885307], [12.1474382, 45.8851696], [12.1472067, 45.88497], [12.1468787, 45.8847785], [12.1465227, 45.8846215], [12.146289, 45.8845041], [12.1461816, 45.8843873], [12.1460091, 45.884173], [12.1457565, 45.8837969], [12.1456198, 45.8835583], [12.1452143, 45.8836451], [12.1448598, 45.8837122], [12.1444262, 45.8837724], [12.1438162, 45.8838725], [12.1435628, 45.8839447], [12.1431965, 45.8840668], [12.142914, 45.8841528], [12.1427104, 45.8843004], [12.1423367, 45.8844879], [12.1419536, 45.8846418], [12.1408218, 45.8850052], [12.1402089, 45.8851889], [12.1395229, 45.885398], [12.1388761, 45.8856399], [12.1388398, 45.88567], [12.1386581, 45.8858088], [12.1383443, 45.8859347], [12.1377771, 45.8861326], [12.136847, 45.8864332], [12.1365646, 45.8865191], [12.1360209, 45.8866722], [12.135755, 45.8867212], [12.1353237, 45.8868164], [12.1347421, 45.8870187], [12.1342852, 45.8871877], [12.1338003, 45.8873235], [12.1336451, 45.8873511], [12.1334852, 45.8873607], [12.1333206, 45.88742], [12.1326712, 45.8873687], [12.1308401, 45.8872639], [12.1298709, 45.8872149], [12.1298861, 45.8876184], [12.1293945, 45.8876371], [12.1293735, 45.8874722], [12.1293022, 45.8867992], [12.129219, 45.8861839], [12.1285745, 45.8862015], [12.1286591, 45.8869758], [12.1283315, 45.88699], [12.1278025, 45.8864077], [12.1277427, 45.8865422], [12.1274538, 45.8867795], [12.1271934, 45.8869274], [12.1270369, 45.8869355], [12.1265633, 45.8869434], [12.1261816, 45.8869225], [12.1259716, 45.8869699], [12.1255724, 45.8869079], [12.1254617, 45.8868549], [12.1253287, 45.8867439], [12.1252267, 45.8865903], [12.1251363, 45.8865745], [12.1240622, 45.8865206], [12.1240276, 45.8865118], [12.1238767, 45.8864736], [12.1233628, 45.8864107], [12.1233269, 45.8861693], [12.1229464, 45.8861718], [12.1226537, 45.8861434], [12.1215098, 45.8859701], [12.1201158, 45.8857484], [12.1196158, 45.885671], [12.1186573, 45.8855254], [12.1179132, 45.8853476], [12.1170804, 45.8854483], [12.1165198, 45.8854818], [12.1162444, 45.8854868], [12.1158795, 45.8853627], [12.1154673, 45.8851866], [12.1148408, 45.8853052], [12.1143462, 45.8853837], [12.1141494, 45.8856622], [12.1137884, 45.8861781], [12.1130893, 45.8862037], [12.1120594, 45.8862446], [12.111805, 45.8862367], [12.1115054, 45.8862275], [12.1116888, 45.8853857], [12.1117539, 45.8849013], [12.1113104, 45.8845529], [12.111068, 45.8843362], [12.1112675, 45.8841119], [12.1113755, 45.883903], [12.1109387, 45.8836703], [12.1102843, 45.8833406], [12.1102414, 45.8832323], [12.1102752, 45.8830125], [12.1103716, 45.8827589], [12.1103382, 45.8826568], [12.1101722, 45.8826549], [12.1098714, 45.8827146], [12.1097685, 45.8826852], [12.1094395, 45.8825696], [12.1082748, 45.8823438], [12.1073998, 45.8821874], [12.1072847, 45.8821069], [12.1072499, 45.8819791], [12.1077407, 45.881689], [12.1078841, 45.8814533], [12.1074838, 45.8813806], [12.1079505, 45.8801666], [12.1074345, 45.8801678], [12.107272, 45.8802302], [12.1067029, 45.8802714]]]}}]}